{
    "links": {
        "self": "http://www.neowsapp.com/rest/v1/neo/3698483?api_key=iIulBulltgU6a56xZRHN4H3l9WmuAYTsLGpBGhQ2"
    },
    "id": "3698483",
    "neo_reference_id": "3698483",
    "name": "(2014 HG196)",
    "designation": "2014 HG196",
    "nasa_jpl_url": "http://ssd.jpl.nasa.gov/sbdb.cgi?sstr=3698483",
    "absolute_magnitude_h": 26.6,
    "estimated_diameter": {
        "kilometers": {
            "estimated_diameter_min": 0.0127219879,
            "estimated_diameter_max": 0.0284472297
        },
        "meters": {
            "estimated_diameter_min": 12.7219878539,
            "estimated_diameter_max": 28.4472296503
        },
        "miles": {
            "estimated_diameter_min": 0.0079050743,
            "estimated_diameter_max": 0.0176762835
        },
        "feet": {
            "estimated_diameter_min": 41.7388066307,
            "estimated_diameter_max": 93.330808926
        }
    },
    "is_potentially_hazardous_asteroid": false,
    "close_approach_data": [
        {
            "close_approach_date": "1936-03-31",
            "close_approach_date_full": "1936-Mar-31 06:23",
            "epoch_date_close_approach": -1065202620000,
            "relative_velocity": {
                "kilometers_per_second": "15.5316129633",
                "kilometers_per_hour": "55913.8066679153",
                "miles_per_hour": "34742.6650376277"
            },
            "miss_distance": {
                "astronomical": "0.0277899264",
                "lunar": "10.8102813696",
                "kilometers": "4157313.796896768",
                "miles": "2583235.0071926784"
            },
            "orbiting_body": "Mars"
        },
        {
            "close_approach_date": "2014-04-02",
            "close_approach_date_full": "2014-Apr-02 22:54",
            "epoch_date_close_approach": 1396479240000,
            "relative_velocity": {
                "kilometers_per_second": "11.4337175397",
                "kilometers_per_hour": "41161.3831429621",
                "miles_per_hour": "25576.0827645811"
            },
            "miss_distance": {
                "astronomical": "0.0070857661",
                "lunar": "2.7563630129",
                "kilometers": "1060015.515878207",
                "miles": "658663.0989529766"
            },
            "orbiting_body": "Moon"
        },
        {
            "close_approach_date": "2014-04-03",
            "close_approach_date_full": "2014-Apr-03 05:43",
            "epoch_date_close_approach": 1396503780000,
            "relative_velocity": {
                "kilometers_per_second": "11.6395645567",
                "kilometers_per_hour": "41902.4324039645",
                "miles_per_hour": "26036.5419567856"
            },
            "miss_distance": {
                "astronomical": "0.0076909332",
                "lunar": "2.9917730148",
                "kilometers": "1150547.225032284",
                "miles": "714916.8944981592"
            },
            "orbiting_body": "Earth"
        }
    ],
    "orbital_data": {
        "orbit_id": "8",
        "orbit_determination_date": "2020-04-25 06:49:44",
        "first_observation_date": "2014-04-23",
        "last_observation_date": "2014-05-04",
        "data_arc_in_days": 11,
        "observations_used": 36,
        "orbit_uncertainty": "9",
        "minimum_orbit_intersection": ".0025599",
        "jupiter_tisserand_invariant": "3.759",
        "epoch_osculation": "2456774.5",
        "eccentricity": ".5416866662950011",
        "semi_major_axis": "1.895922011153889",
        "inclination": "1.263449870194466",
        "ascending_node_longitude": "18.88143000503721",
        "orbital_period": "953.5185137590114",
        "perihelion_distance": ".8689263373766252",
        "perihelion_argument": "122.2439012674007",
        "aphelion_distance": "2.922917684931154",
        "perihelion_time": "2456712.958582118893",
        "mean_anomaly": "23.23490327404159",
        "mean_motion": ".377549040532825",
        "equinox": "J2000",
        "orbit_class": {
            "orbit_class_type": "APO",
            "orbit_class_description": "Near-Earth asteroid orbits which cross the Earth’s orbit similar to that of 1862 Apollo",
            "orbit_class_range": "a (semi-major axis) > 1.0 AU; q (perihelion) < 1.017 AU"
        }
    },
    "is_sentry_object": false
}